{
  "type": "FeatureCollection",
  "features": [
    {
      "type": "Feature",
      "properties": {
        "norad_id": 28051,
        "name": "IRS-P6 (RESOURCESAT-1)",
        "group": "resource",
        "lat": -24.661992765217846,
        "lon": 30.113579421391037,
        "alt_km": 817.3511972575516,
        "timestamp": "2025-12-11T20:41:14.743701+00:00",
        "meta_object_name": "IRS-P6 (RESOURCESAT-1)",
        "meta_object_id": "2003-046A",
        "meta_epoch": "2025-12-11T14:52:09.570144",
        "meta_mean_motion": 14.36074938,
        "meta_eccentricity": 0.00640333,
        "meta_inclination": 98.2176,
        "meta_ra_of_asc_node": 26.078,
        "meta_arg_of_pericenter": 184.0313,
        "meta_mean_anomaly": 338.2396,
        "meta_ephemeris_type": 0,
        "meta_classification_type": "U",
        "meta_norad_cat_id": 28051,
        "meta_element_set_no": 999,
        "meta_rev_at_epoch": 15360,
        "meta_bstar": 0.00019805178,
        "meta_mean_motion_dot": 5.49e-06,
        "meta_mean_motion_ddot": 0,
        "tle_line1": "1 28051U 03046A   25345.61955521  .00000549  00000+0  19805-3 0  9995",
        "tle_line2": "2 28051  98.2176  26.0780 0064033 184.0313 338.2396 14.36074938153604"
      },
      "geometry": {
        "type": "Point",
        "coordinates": [
          30.113579421391037,
          -24.661992765217846
        ]
      }
    },
    {
      "type": "Feature",
      "properties": {
        "norad_id": 28220,
        "name": "SHIYAN-1 (SY-1)",
        "group": "resource",
        "lat": -78.86955122376624,
        "lon": 92.19030240683264,
        "alt_km": 486.39598540246516,
        "timestamp": "2025-12-11T20:41:14.743712+00:00",
        "meta_object_name": "SHIYAN-1 (SY-1)",
        "meta_object_id": "2004-012A",
        "meta_epoch": "2025-12-11T10:02:42.167904",
        "meta_mean_motion": 15.28090216,
        "meta_eccentricity": 0.00056618,
        "meta_inclination": 97.8931,
        "meta_ra_of_asc_node": 46.8783,
        "meta_arg_of_pericenter": 331.221,
        "meta_mean_anomaly": 28.8715,
        "meta_ephemeris_type": 0,
        "meta_classification_type": "U",
        "meta_norad_cat_id": 28220,
        "meta_element_set_no": 999,
        "meta_rev_at_epoch": 18236,
        "meta_bstar": 0.00087047445,
        "meta_mean_motion_dot": 0.00023824,
        "meta_mean_motion_ddot": 0,
        "tle_line1": "1 28220U 04012A   25345.41854361  .00023824  00000+0  87047-3 0  9999",
        "tle_line2": "2 28220  97.8931  46.8783 0005661 331.2210  28.8715 15.28090216182364"
      },
      "geometry": {
        "type": "Point",
        "coordinates": [
          92.19030240683264,
          -78.86955122376624
        ]
      }
    },
    {
      "type": "Feature",
      "properties": {
        "norad_id": 28376,
        "name": "AURA",
        "group": "resource",
        "lat": 16.5161666110917,
        "lon": 118.57090537866748,
        "alt_km": 690.4375186476118,
        "timestamp": "2025-12-11T20:41:14.743723+00:00",
        "meta_object_name": "AURA",
        "meta_object_id": "2004-026A",
        "meta_epoch": "2025-12-11T15:00:42.237504",
        "meta_mean_motion": 14.60942804,
        "meta_eccentricity": 0.00012131,
        "meta_inclination": 98.3183,
        "meta_ra_of_asc_node": 295.8469,
        "meta_arg_of_pericenter": 94.0906,
        "meta_mean_anomaly": 266.0433,
        "meta_ephemeris_type": 0,
        "meta_classification_type": "U",
        "meta_norad_cat_id": 28376,
        "meta_element_set_no": 999,
        "meta_rev_at_epoch": 13882,
        "meta_bstar": 0.00037529795,
        "meta_mean_motion_dot": 1.791e-05,
        "meta_mean_motion_ddot": 0,
        "tle_line1": "1 28376U 04026A   25345.62548886  .00001791  00000+0  37530-3 0  9992",
        "tle_line2": "2 28376  98.3183 295.8469 0001213  94.0906 266.0433 14.60942804138822"
      },
      "geometry": {
        "type": "Point",
        "coordinates": [
          118.57090537866748,
          16.5161666110917
        ]
      }
    },
    {
      "type": "Feature",
      "properties": {
        "norad_id": 28649,
        "name": "IRS-P5 (CARTOSAT-1)",
        "group": "resource",
        "lat": -74.80655178588395,
        "lon": 41.54755100596556,
        "alt_km": 604.5024379054521,
        "timestamp": "2025-12-11T20:41:14.743733+00:00",
        "meta_object_name": "IRS-P5 (CARTOSAT-1)",
        "meta_object_id": "2005-017A",
        "meta_epoch": "2025-12-11T12:58:29.809056",
        "meta_mean_motion": 14.90397392,
        "meta_eccentricity": 0.00012804,
        "meta_inclination": 97.5498,
        "meta_ra_of_asc_node": 12.007,
        "meta_arg_of_pericenter": 46.727,
        "meta_mean_anomaly": 313.4056,
        "meta_ephemeris_type": 0,
        "meta_classification_type": "U",
        "meta_norad_cat_id": 28649,
        "meta_element_set_no": 999,
        "meta_rev_at_epoch": 11586,
        "meta_bstar": 0.00026321563,
        "meta_mean_motion_dot": 2.511e-05,
        "meta_mean_motion_ddot": 0,
        "tle_line1": "1 28649U 05017A   25345.54062279  .00002511  00000+0  26322-3 0  9992",
        "tle_line2": "2 28649  97.5498  12.0070 0001280  46.7270 313.4056 14.90397392115860"
      },
      "geometry": {
        "type": "Point",
        "coordinates": [
          41.54755100596556,
          -74.80655178588395
        ]
      }
    },
    {
      "type": "Feature",
      "properties": {
        "norad_id": 28893,
        "name": "SINAH 1",
        "group": "resource",
        "lat": -0.19818632532986757,
        "lon": 114.44549675849645,
        "alt_km": 691.6405630020863,
        "timestamp": "2025-12-11T20:41:14.743744+00:00",
        "meta_object_name": "SINAH 1",
        "meta_object_id": "2005-043D",
        "meta_epoch": "2025-12-11T14:07:36.774048",
        "meta_mean_motion": 14.63960661,
        "meta_eccentricity": 0.00152834,
        "meta_inclination": 98.2602,
        "meta_ra_of_asc_node": 114.1427,
        "meta_arg_of_pericenter": 140.4035,
        "meta_mean_anomaly": 219.8286,
        "meta_ephemeris_type": 0,
        "meta_classification_type": "U",
        "meta_norad_cat_id": 28893,
        "meta_element_set_no": 999,
        "meta_rev_at_epoch": 7307,
        "meta_bstar": 0.00016603615,
        "meta_mean_motion_dot": 8.22e-06,
        "meta_mean_motion_ddot": 0,
        "tle_line1": "1 28893U 05043D   25345.58862007  .00000822  00000+0  16604-3 0  9998",
        "tle_line2": "2 28893  98.2602 114.1427 0015283 140.4035 219.8286 14.63960661 73070"
      },
      "geometry": {
        "type": "Point",
        "coordinates": [
          114.44549675849645,
          -0.19818632532986757
        ]
      }
    },
    {
      "type": "Feature",
      "properties": {
        "norad_id": 29079,
        "name": "EROS B",
        "group": "resource",
        "lat": 40.36450509586385,
        "lon": 96.09724734112096,
        "alt_km": 361.7882558262145,
        "timestamp": "2025-12-11T20:41:14.743755+00:00",
        "meta_object_name": "EROS B",
        "meta_object_id": "2006-014A",
        "meta_epoch": "2025-12-11T14:23:14.768736",
        "meta_mean_motion": 15.67861526,
        "meta_eccentricity": 0.00019729,
        "meta_inclination": 97.3467,
        "meta_ra_of_asc_node": 102.1188,
        "meta_arg_of_pericenter": 297.2264,
        "meta_mean_anomaly": 62.8795,
        "meta_ephemeris_type": 0,
        "meta_classification_type": "U",
        "meta_norad_cat_id": 29079,
        "meta_element_set_no": 999,
        "meta_rev_at_epoch": 9062,
        "meta_bstar": 0.0033149762,
        "meta_mean_motion_dot": 0.00380837,
        "meta_mean_motion_ddot": 0,
        "tle_line1": "1 29079U 06014A   25345.59947649  .00380837  00000+0  33150-2 0  9992",
        "tle_line2": "2 29079  97.3467 102.1188 0001972 297.2264  62.8795 15.67861526 90628"
      },
      "geometry": {
        "type": "Point",
        "coordinates": [
          96.09724734112096,
          40.36450509586385
        ]
      }
    },
    {
      "type": "Feature",
      "properties": {
        "norad_id": 29228,
        "name": "RESURS-DK 1",
        "group": "resource",
        "lat": 46.19943740149451,
        "lon": -98.29922701417753,
        "alt_km": 528.3146415135225,
        "timestamp": "2025-12-11T20:41:14.743765+00:00",
        "meta_object_name": "RESURS-DK 1",
        "meta_object_id": "2006-021A",
        "meta_epoch": "2025-12-11T12:10:38.192736",
        "meta_mean_motion": 15.12150737,
        "meta_eccentricity": 0.00073592,
        "meta_inclination": 69.9334,
        "meta_ra_of_asc_node": 105.0231,
        "meta_arg_of_pericenter": 260.8464,
        "meta_mean_anomaly": 99.1869,
        "meta_ephemeris_type": 0,
        "meta_classification_type": "U",
        "meta_norad_cat_id": 29228,
        "meta_element_set_no": 999,
        "meta_rev_at_epoch": 7419,
        "meta_bstar": 0.00026953869,
        "meta_mean_motion_dot": 4.555e-05,
        "meta_mean_motion_ddot": 0,
        "tle_line1": "1 29228U 06021A   25345.50738649  .00004555  00000+0  26954-3 0  9990",
        "tle_line2": "2 29228  69.9334 105.0231 0007359 260.8464  99.1869 15.12150737 74190"
      },
      "geometry": {
        "type": "Point",
        "coordinates": [
          -98.29922701417753,
          46.19943740149451
        ]
      }
    }
  ]
}